COSMOS 1892             
1 18421U 87088A   25306.41747251  .00240086  20127-4  71166-3 0  9994
2 18421  82.4688  89.1255 0005231 308.1565  51.9237 15.92437226 84867
SL-14 R/B               
1 18749U 88001B   25306.49492416  .00000645  00000+0  72066-4 0  9990
2 18749  82.5109 315.0090 0016693 301.8020  58.1570 14.85357745 23148
COSMOS 1933             
1 18958U 88020A   25306.44707677  .00004032  00000+0  20473-3 0  9994
2 18958  82.5170  16.6722 0003028 285.2133  74.8765 15.16636605 30938
SL-3 R/B                
1 19046U 88032B   25306.46534596  .00006021  00000+0  29605-3 0  9992
2 19046  97.5038 285.4914 0025765 320.9845  38.9530 15.18110602 32797
SL-16 R/B               
1 19120U 88039B   25306.44156725 -.00000064  00000+0 -75852-5 0  9994
2 19120  71.0152 337.6083 0021781 181.5530 178.5531 14.19586122940320
COSMOS 1953             
1 19210U 88050A   25306.45848251  .00005277  00000+0  20199-3 0  9991
2 19210  82.5056 285.9850 0010960 202.1088 157.9679 15.26282567 18361
SL-8 R/B                
1 19257U 88053B   25306.50004053  .00000330  00000+0  11552-3 0  9993
2 19257  74.0483 346.8856 0020493 202.6998 260.9752 14.38822208958300
COSMOS 1975             
1 19573U 88093A   25306.32277021  .00010495  00000+0  41258-3 0  9994
2 19573  82.5202 245.2564 0009217 259.0768 100.9433 15.25501859999963
SL-14 R/B               
1 19574U 88093B   25306.03319689  .00000577  00000+0  63693-4 0  9998
2 19574  82.5310 161.8669 0022289  99.7005  13.9673 14.85487341982088
SL-16 R/B               
1 19650U 88102B   25306.47849668  .00000040  00000+0  44543-4 0  9995
2 19650  71.0006  59.1532 0015305 212.7399 147.2777 14.16130692908880
INTERCOSMOS 24          
1 20261U 89080A   25306.38203527  .00000640  00000+0  18899-3 0  9999
2 20261  82.6092 187.1948 1187694 228.1603 121.2020 12.59350925650770
SL-14 R/B               
1 20262U 89080C   25306.33822691  .00000295  00000+0  79077-4 0  9996
2 20262  82.5914 254.9480 1231488 115.8706 257.4490 12.50371269644236
