CCSDS_OMM_VERS = 2.0
CREATION_DATE  = 
ORIGINATOR     = 

OBJECT_NAME    = COSMOS 1892
OBJECT_ID      = 1987-088A
CENTER_NAME    = EARTH
REF_FRAME      = TEME
TIME_SYSTEM    = UTC
MEAN_ELEMENT_THEORY = SGP/SGP4

EPOCH          = 2025-11-02T10:01:09.624864
MEAN_MOTION    = 15.92437226
ECCENTRICITY   = .0005231
INCLINATION    = 82.4688
RA_OF_ASC_NODE = 89.1255
ARG_OF_PERICENTER = 308.1565
MEAN_ANOMALY   = 51.9237

EPHEMERIS_TYPE = 0
CLASSIFICATION_TYPE = U
NORAD_CAT_ID   = 18421
ELEMENT_SET_NO = 999
REV_AT_EPOCH   = 8486
BSTAR          = .71166E-3
MEAN_MOTION_DOT = .240086E-2
MEAN_MOTION_DDOT = .20127E-4

CCSDS_OMM_VERS = 2.0
CREATION_DATE  = 
ORIGINATOR     = 

OBJECT_NAME    = SL-14 R/B
OBJECT_ID      = 1988-001B
CENTER_NAME    = EARTH
REF_FRAME      = TEME
TIME_SYSTEM    = UTC
MEAN_ELEMENT_THEORY = SGP/SGP4

EPOCH          = 2025-11-02T11:52:41.447424
MEAN_MOTION    = 14.85357745
ECCENTRICITY   = .0016693
INCLINATION    = 82.5109
RA_OF_ASC_NODE = 315.0090
ARG_OF_PERICENTER = 301.8020
MEAN_ANOMALY   = 58.1570

EPHEMERIS_TYPE = 0
CLASSIFICATION_TYPE = U
NORAD_CAT_ID   = 18749
ELEMENT_SET_NO = 999
REV_AT_EPOCH   = 2314
BSTAR          = .72066E-4
MEAN_MOTION_DOT = .645E-5
MEAN_MOTION_DDOT = 0

CCSDS_OMM_VERS = 2.0
CREATION_DATE  = 
ORIGINATOR     = 

OBJECT_NAME    = COSMOS 1933
OBJECT_ID      = 1988-020A
CENTER_NAME    = EARTH
REF_FRAME      = TEME
TIME_SYSTEM    = UTC
MEAN_ELEMENT_THEORY = SGP/SGP4

EPOCH          = 2025-11-02T10:43:47.432928
MEAN_MOTION    = 15.16636605
ECCENTRICITY   = .0003028
INCLINATION    = 82.5170
RA_OF_ASC_NODE = 16.6722
ARG_OF_PERICENTER = 285.2133
MEAN_ANOMALY   = 74.8765

EPHEMERIS_TYPE = 0
CLASSIFICATION_TYPE = U
NORAD_CAT_ID   = 18958
ELEMENT_SET_NO = 999
REV_AT_EPOCH   = 3093
BSTAR          = .20473E-3
MEAN_MOTION_DOT = .4032E-4
MEAN_MOTION_DDOT = 0

CCSDS_OMM_VERS = 2.0
CREATION_DATE  = 
ORIGINATOR     = 

OBJECT_NAME    = SL-3 R/B
OBJECT_ID      = 1988-032B
CENTER_NAME    = EARTH
REF_FRAME      = TEME
TIME_SYSTEM    = UTC
MEAN_ELEMENT_THEORY = SGP/SGP4

EPOCH          = 2025-11-02T11:10:05.890944
MEAN_MOTION    = 15.18110602
ECCENTRICITY   = .0025765
INCLINATION    = 97.5038
RA_OF_ASC_NODE = 285.4914
ARG_OF_PERICENTER = 320.9845
MEAN_ANOMALY   = 38.9530

EPHEMERIS_TYPE = 0
CLASSIFICATION_TYPE = U
NORAD_CAT_ID   = 19046
ELEMENT_SET_NO = 999
REV_AT_EPOCH   = 3279
BSTAR          = .29605E-3
MEAN_MOTION_DOT = .6021E-4
MEAN_MOTION_DDOT = 0

CCSDS_OMM_VERS = 2.0
CREATION_DATE  = 
ORIGINATOR     = 

OBJECT_NAME    = SL-16 R/B
OBJECT_ID      = 1988-039B
CENTER_NAME    = EARTH
REF_FRAME      = TEME
TIME_SYSTEM    = UTC
MEAN_ELEMENT_THEORY = SGP/SGP4

EPOCH          = 2025-11-02T10:35:51.410400
MEAN_MOTION    = 14.19586122
ECCENTRICITY   = .0021781
INCLINATION    = 71.0152
RA_OF_ASC_NODE = 337.6083
ARG_OF_PERICENTER = 181.5530
MEAN_ANOMALY   = 178.5531

EPHEMERIS_TYPE = 0
CLASSIFICATION_TYPE = U
NORAD_CAT_ID   = 19120
ELEMENT_SET_NO = 999
REV_AT_EPOCH   = 94032
BSTAR          = -.75852E-5
MEAN_MOTION_DOT = -.64E-6
MEAN_MOTION_DDOT = 0

CCSDS_OMM_VERS = 2.0
CREATION_DATE  = 
ORIGINATOR     = 

OBJECT_NAME    = COSMOS 1953
OBJECT_ID      = 1988-050A
CENTER_NAME    = EARTH
REF_FRAME      = TEME
TIME_SYSTEM    = UTC
MEAN_ELEMENT_THEORY = SGP/SGP4

EPOCH          = 2025-11-02T11:00:12.888864
MEAN_MOTION    = 15.26282567
ECCENTRICITY   = .001096
INCLINATION    = 82.5056
RA_OF_ASC_NODE = 285.9850
ARG_OF_PERICENTER = 202.1088
MEAN_ANOMALY   = 157.9679

EPHEMERIS_TYPE = 0
CLASSIFICATION_TYPE = U
NORAD_CAT_ID   = 19210
ELEMENT_SET_NO = 999
REV_AT_EPOCH   = 1836
BSTAR          = .20199E-3
MEAN_MOTION_DOT = .5277E-4
MEAN_MOTION_DDOT = 0

CCSDS_OMM_VERS = 2.0
CREATION_DATE  = 
ORIGINATOR     = 

OBJECT_NAME    = SL-8 R/B
OBJECT_ID      = 1988-053B
CENTER_NAME    = EARTH
REF_FRAME      = TEME
TIME_SYSTEM    = UTC
MEAN_ELEMENT_THEORY = SGP/SGP4

EPOCH          = 2025-11-02T12:00:03.501792
MEAN_MOTION    = 14.38822208
ECCENTRICITY   = .0020493
INCLINATION    = 74.0483
RA_OF_ASC_NODE = 346.8856
ARG_OF_PERICENTER = 202.6998
MEAN_ANOMALY   = 260.9752

EPHEMERIS_TYPE = 0
CLASSIFICATION_TYPE = U
NORAD_CAT_ID   = 19257
ELEMENT_SET_NO = 999
REV_AT_EPOCH   = 95830
BSTAR          = .11552E-3
MEAN_MOTION_DOT = .33E-5
MEAN_MOTION_DDOT = 0

CCSDS_OMM_VERS = 2.0
CREATION_DATE  = 
ORIGINATOR     = 

OBJECT_NAME    = COSMOS 1975
OBJECT_ID      = 1988-093A
CENTER_NAME    = EARTH
REF_FRAME      = TEME
TIME_SYSTEM    = UTC
MEAN_ELEMENT_THEORY = SGP/SGP4

EPOCH          = 2025-11-02T07:44:47.346144
MEAN_MOTION    = 15.25501859
ECCENTRICITY   = .0009217
INCLINATION    = 82.5202
RA_OF_ASC_NODE = 245.2564
ARG_OF_PERICENTER = 259.0768
MEAN_ANOMALY   = 100.9433

EPHEMERIS_TYPE = 0
CLASSIFICATION_TYPE = U
NORAD_CAT_ID   = 19573
ELEMENT_SET_NO = 999
REV_AT_EPOCH   = 99996
BSTAR          = .41258E-3
MEAN_MOTION_DOT = .10495E-3
MEAN_MOTION_DDOT = 0

CCSDS_OMM_VERS = 2.0
CREATION_DATE  = 
ORIGINATOR     = 

OBJECT_NAME    = SL-14 R/B
OBJECT_ID      = 1988-093B
CENTER_NAME    = EARTH
REF_FRAME      = TEME
TIME_SYSTEM    = UTC
MEAN_ELEMENT_THEORY = SGP/SGP4

EPOCH          = 2025-11-02T00:47:48.211296
MEAN_MOTION    = 14.85487341
ECCENTRICITY   = .00222897
INCLINATION    = 82.5310
RA_OF_ASC_NODE = 161.8669
ARG_OF_PERICENTER = 99.7005
MEAN_ANOMALY   = 13.9673

EPHEMERIS_TYPE = 0
CLASSIFICATION_TYPE = U
NORAD_CAT_ID   = 19574
ELEMENT_SET_NO = 999
REV_AT_EPOCH   = 98208
BSTAR          = .63692741E-4
MEAN_MOTION_DOT = .577E-5
MEAN_MOTION_DDOT = 0

CCSDS_OMM_VERS = 2.0
CREATION_DATE  = 
ORIGINATOR     = 

OBJECT_NAME    = SL-16 R/B
OBJECT_ID      = 1988-102B
CENTER_NAME    = EARTH
REF_FRAME      = TEME
TIME_SYSTEM    = UTC
MEAN_ELEMENT_THEORY = SGP/SGP4

EPOCH          = 2025-11-02T11:29:02.113152
MEAN_MOTION    = 14.16130692
ECCENTRICITY   = .0015305
INCLINATION    = 71.0006
RA_OF_ASC_NODE = 59.1532
ARG_OF_PERICENTER = 212.7399
MEAN_ANOMALY   = 147.2777

EPHEMERIS_TYPE = 0
CLASSIFICATION_TYPE = U
NORAD_CAT_ID   = 19650
ELEMENT_SET_NO = 999
REV_AT_EPOCH   = 90888
BSTAR          = .44543E-4
MEAN_MOTION_DOT = .4E-6
MEAN_MOTION_DDOT = 0

CCSDS_OMM_VERS = 2.0
CREATION_DATE  = 
ORIGINATOR     = 

OBJECT_NAME    = INTERCOSMOS 24
OBJECT_ID      = 1989-080A
CENTER_NAME    = EARTH
REF_FRAME      = TEME
TIME_SYSTEM    = UTC
MEAN_ELEMENT_THEORY = SGP/SGP4

EPOCH          = 2025-11-02T09:10:07.847328
MEAN_MOTION    = 12.59350925
ECCENTRICITY   = .1187694
INCLINATION    = 82.6092
RA_OF_ASC_NODE = 187.1948
ARG_OF_PERICENTER = 228.1603
MEAN_ANOMALY   = 121.2020

EPHEMERIS_TYPE = 0
CLASSIFICATION_TYPE = U
NORAD_CAT_ID   = 20261
ELEMENT_SET_NO = 999
REV_AT_EPOCH   = 65077
BSTAR          = .18899E-3
MEAN_MOTION_DOT = .64E-5
MEAN_MOTION_DDOT = 0

CCSDS_OMM_VERS = 2.0
CREATION_DATE  = 
ORIGINATOR     = 

OBJECT_NAME    = SL-14 R/B
OBJECT_ID      = 1989-080C
CENTER_NAME    = EARTH
REF_FRAME      = TEME
TIME_SYSTEM    = UTC
MEAN_ELEMENT_THEORY = SGP/SGP4

EPOCH          = 2025-11-02T08:07:02.805024
MEAN_MOTION    = 12.50371269
ECCENTRICITY   = .1231488
INCLINATION    = 82.5914
RA_OF_ASC_NODE = 254.9480
ARG_OF_PERICENTER = 115.8706
MEAN_ANOMALY   = 257.4490

EPHEMERIS_TYPE = 0
CLASSIFICATION_TYPE = U
NORAD_CAT_ID   = 20262
ELEMENT_SET_NO = 999
REV_AT_EPOCH   = 64423
BSTAR          = .79077E-4
MEAN_MOTION_DOT = .295E-5
MEAN_MOTION_DDOT = 0

